[
    {
        "Altitude(m)": 611967.1431019272,
        "Argument of Periapsis(deg)": 0.0,
        "Eccentricity": 0.0,
        "Inclination(deg)": 60.0,
        "Latitude(deg)": 59.140052965702495,
        "Longitude(deg)": -73.90796046634648,
        "Mean Anomaly(deg)": -261.8182,
        "RAAN(deg)": 280.0,
        "Satellite Name": "Test1 1238",
        "Satellite Number": 1238,
        "Semi-Major Axis(m)": 6980739.136638005,
        "Time(s)": 0
    },
    {
        "Altitude(m)": 611934.3429396944,
        "Argument of Periapsis(deg)": 0.00010418945913296404,
        "Eccentricity": 0.0,
        "Inclination(deg)": 60.0,
        "Latitude(deg)": 58.98641538130096,
        "Longitude(deg)": -72.78471815123753,
        "Mean Anomaly(deg)": -261.1980938545382,
        "RAAN(deg)": 279.99957995086027,
        "Satellite Name": "Test1 1238",
        "Satellite Number": 1238,
        "Semi-Major Axis(m)": 6980739.136638005,
        "Time(s)": 10
    },
    {
        "Altitude(m)": 611899.2381463241,
        "Argument of Periapsis(deg)": 0.0002083789182659281,
        "Eccentricity": 0.0,
        "Inclination(deg)": 60.0,
        "Latitude(deg)": 58.82239972542892,
        "Longitude(deg)": -71.67214106550072,
        "Mean Anomaly(deg)": -260.57798770907635,
        "RAAN(deg)": 279.9991599017205,
        "Satellite Name": "Test1 1238",
        "Satellite Number": 1238,
        "Semi-Major Axis(m)": 6980739.136638005,
        "Time(s)": 20
    },
    {
        "Altitude(m)": 611861.8489561882,
        "Argument of Periapsis(deg)": 0.00031256837739889213,
        "Eccentricity": 0.0,
        "Inclination(deg)": 60.0,
        "Latitude(deg)": 58.648169046126434,
        "Longitude(deg)": -70.57074099913912,
        "Mean Anomaly(deg)": -259.9578815636145,
        "RAAN(deg)": 279.9987398525808,
        "Satellite Name": "Test1 1238",
        "Satellite Number": 1238,
        "Semi-Major Axis(m)": 6980739.136638005,
        "Time(s)": 30
    },
    {
        "Altitude(m)": 611822.1969294894,
        "Argument of Periapsis(deg)": 0.0004167578365318562,
        "Eccentricity": 0.0,
        "Inclination(deg)": 60.0,
        "Latitude(deg)": 58.46389284035711,
        "Longitude(deg)": -69.48098899403675,
        "Mean Anomaly(deg)": -259.3377754181527,
        "RAAN(deg)": 279.99831980344106,
        "Satellite Name": "Test1 1238",
        "Satellite Number": 1238,
        "Semi-Major Axis(m)": 6980739.136638005,
        "Time(s)": 40
    },
    {
        "Altitude(m)": 611780.3049420526,
        "Argument of Periapsis(deg)": 0.0005209472956648203,
        "Eccentricity": 0.0,
        "Inclination(deg)": 60.0,
        "Latitude(deg)": 58.269746337498766,
        "Longitude(deg)": -68.40331612026067,
        "Mean Anomaly(deg)": -258.71766927269084,
        "RAAN(deg)": 279.9978997543013,
        "Satellite Name": "Test1 1238",
        "Satellite Number": 1238,
        "Semi-Major Axis(m)": 6980739.136638005,
        "Time(s)": 50
    },
    {
        "Altitude(m)": 611736.1971745199,
        "Argument of Periapsis(deg)": 0.0006251367547977843,
        "Eccentricity": 0.0,
        "Inclination(deg)": 60.0,
        "Latitude(deg)": 58.06590978929199,
        "Longitude(deg)": -67.33811302949336,
        "Mean Anomaly(deg)": -258.097563127229,
        "RAAN(deg)": 279.9974797051615,
        "Satellite Name": "Test1 1238",
        "Satellite Number": 1238,
        "Semi-Major Axis(m)": 6980739.136638005,
        "Time(s)": 60
    },
    {
        "Altitude(m)": 611689.8991008862,
        "Argument of Periapsis(deg)": 0.0007293262139307483,
        "Eccentricity": 0.0,
        "Inclination(deg)": 60.0,
        "Latitude(deg)": 57.85256777162759,
        "Longitude(deg)": -66.28572977822527,
        "Mean Anomaly(deg)": -257.4774569817672,
        "RAAN(deg)": 279.9970596560218,
        "Satellite Name": "Test1 1238",
        "Satellite Number": 1238,
        "Semi-Major Axis(m)": 6980739.136638005,
        "Time(s)": 70
    },
    {
        "Altitude(m)": 611641.4374764578,
        "Argument of Periapsis(deg)": 0.0008335156730637124,
        "Eccentricity": 0.0,
        "Inclination(deg)": 60.0,
        "Latitude(deg)": 57.62990850301491,
        "Longitude(deg)": -65.246477411198,
        "Mean Anomaly(deg)": -256.8573508363054,
        "RAAN(deg)": 279.996639606882,
        "Satellite Name": "Test1 1238",
        "Satellite Number": 1238,
        "Semi-Major Axis(m)": 6980739.136638005,
        "Time(s)": 80
    },
    {
        "Altitude(m)": 611590.8403251645,
        "Argument of Periapsis(deg)": 0.0009377051321966765,
        "Eccentricity": 0.0,
        "Inclination(deg)": 60.0,
        "Latitude(deg)": 57.398123184003,
        "Longitude(deg)": -64.220628255427,
        "Mean Anomaly(deg)": -256.23724469084357,
        "RAAN(deg)": 279.9962195577423,
        "Satellite Name": "Test1 1238",
        "Satellite Number": 1238,
        "Semi-Major Axis(m)": 6980739.136638005,
        "Time(s)": 90
    },
    {
        "Altitude(m)": 611538.1369262858,
        "Argument of Periapsis(deg)": 0.0010418945913296407,
        "Eccentricity": 0.0,
        "Inclination(deg)": 60.0,
        "Latitude(deg)": 57.15740536124032,
        "Longitude(deg)": -63.208416412788196,
        "Mean Anomaly(deg)": -255.61713854538166,
        "RAAN(deg)": 279.99579950860254,
        "Satellite Name": "Test1 1238",
        "Satellite Number": 1238,
        "Semi-Major Axis(m)": 6980739.136638005,
        "Time(s)": 100
    },
    {
        "Altitude(m)": 611483.3578005433,
        "Argument of Periapsis(deg)": 0.0011460840504626045,
        "Eccentricity": 0.0,
        "Inclination(deg)": 60.0,
        "Latitude(deg)": 56.90795031927257,
        "Longitude(deg)": -62.210039938733715,
        "Mean Anomaly(deg)": -254.99703239991987,
        "RAAN(deg)": 279.9953794594628,
        "Satellite Name": "Test1 1238",
        "Satellite Number": 1238,
        "Semi-Major Axis(m)": 6980739.136638005,
        "Time(s)": 110
    },
    {
        "Altitude(m)": 611426.5346956531,
        "Argument of Periapsis(deg)": 0.0012502735095955685,
        "Eccentricity": 0.0,
        "Inclination(deg)": 60.0,
        "Latitude(deg)": 56.649954502603656,
        "Longitude(deg)": -61.22566165616498,
        "Mean Anomaly(deg)": -254.37692625445803,
        "RAAN(deg)": 279.9949594103231,
        "Satellite Name": "Test1 1238",
        "Satellite Number": 1238,
        "Semi-Major Axis(m)": 6980739.136638005,
        "Time(s)": 120
    },
    {
        "Altitude(m)": 611367.7005712169,
        "Argument of Periapsis(deg)": 0.0013544629687285324,
        "Eccentricity": 0.0,
        "Inclination(deg)": 60.0,
        "Latitude(deg)": 56.38361496998868,
        "Longitude(deg)": -60.25541009260254,
        "Mean Anomaly(deg)": -253.7568201089962,
        "RAAN(deg)": 279.99453936118334,
        "Satellite Name": "Test1 1238",
        "Satellite Number": 1238,
        "Semi-Major Axis(m)": 6980739.136638005,
        "Time(s)": 130
    },
    {
        "Altitude(m)": 611306.8895830712,
        "Argument of Periapsis(deg)": 0.0014586524278614966,
        "Eccentricity": 0.0,
        "Inclination(deg)": 60.0,
        "Latitude(deg)": 56.10912888239912,
        "Longitude(deg)": -59.29938202965853,
        "Mean Anomaly(deg)": -253.13671396353436,
        "RAAN(deg)": 279.99411931204355,
        "Satellite Name": "Test1 1238",
        "Satellite Number": 1238,
        "Semi-Major Axis(m)": 6980739.136638005,
        "Time(s)": 140
    },
    {
        "Altitude(m)": 611244.1370670574,
        "Argument of Periapsis(deg)": 0.0015628418869944607,
        "Eccentricity": 0.0,
        "Inclination(deg)": 60.0,
        "Latitude(deg)": 55.82669302561462,
        "Longitude(deg)": -58.35764361638206,
        "Mean Anomaly(deg)": -252.51660781807257,
        "RAAN(deg)": 279.9936992629039,
        "Satellite Name": "Test1 1238",
        "Satellite Number": 1238,
        "Semi-Major Axis(m)": 6980739.136638005,
        "Time(s)": 150
    },
    {
        "Altitude(m)": 611179.4795221984,
        "Argument of Periapsis(deg)": 0.0016670313461274247,
        "Eccentricity": 0.0,
        "Inclination(deg)": 60.0,
        "Latitude(deg)": 55.53650336793998,
        "Longitude(deg)": -57.43023153805873,
        "Mean Anomaly(deg)": -251.89650167261073,
        "RAAN(deg)": 279.9932792137641,
        "Satellite Name": "Test1 1238",
        "Satellite Number": 1238,
        "Semi-Major Axis(m)": 6980739.136638005,
        "Time(s)": 160
    },
    {
        "Altitude(m)": 611112.9545933113,
        "Argument of Periapsis(deg)": 0.0017712208052603888,
        "Eccentricity": 0.0,
        "Inclination(deg)": 60.0,
        "Latitude(deg)": 55.23875465313987,
        "Longitude(deg)": -56.517155733637786,
        "Mean Anomaly(deg)": -251.2763955271489,
        "RAAN(deg)": 279.99285916462435,
        "Satellite Name": "Test1 1238",
        "Satellite Number": 1238,
        "Semi-Major Axis(m)": 6980739.136638005,
        "Time(s)": 170
    },
    {
        "Altitude(m)": 611044.6010530808,
        "Argument of Periapsis(deg)": 0.001875410264393353,
        "Eccentricity": 0.0,
        "Inclination(deg)": 60.0,
        "Latitude(deg)": 54.933640028324845,
        "Longitude(deg)": -55.6184006180543,
        "Mean Anomaly(deg)": -250.65628938168706,
        "RAAN(deg)": 279.9924391154846,
        "Satellite Name": "Test1 1238",
        "Satellite Number": 1238,
        "Semi-Major Axis(m)": 6980739.136638005,
        "Time(s)": 180
    },
    {
        "Altitude(m)": 610974.4587835649,
        "Argument of Periapsis(deg)": 0.0019795997235263173,
        "Eccentricity": 0.0,
        "Inclination(deg)": 60.0,
        "Latitude(deg)": 54.62135070620335,
        "Longitude(deg)": -54.733926306102596,
        "Mean Anomaly(deg)": -250.03618323622527,
        "RAAN(deg)": 279.9920190663449,
        "Satellite Name": "Test1 1238",
        "Satellite Number": 1238,
        "Semi-Major Axis(m)": 6980739.136638005,
        "Time(s)": 190
    }
]